OBJECT_NAME,OBJECT_ID,EPOCH,MEAN_MOTION,ECCENTRICITY,INCLINATION,RA_OF_ASC_NODE,ARG_OF_PERICENTER,MEAN_ANOMALY,EPHEMERIS_TYPE,CLASSIFICATION_TYPE,NORAD_CAT_ID,ELEMENT_SET_NO,REV_AT_EPOCH,BSTAR,MEAN_MOTION_DOT,MEAN_MOTION_DDOT
ONEWEB-0522,2022-138AD,2026-07-09T06:44:37.421088,13.19725981,.0001912,87.9193,300.5594,106.4902,253.6440,0,U,54140,999,17972,.38336451E-4,.28E-6,0
ONEWEB-0523,2022-138AE,2026-07-09T05:25:31.334304,13.20772764,.00024883,87.9194,270.0492,83.1521,276.9896,0,U,54141,999,18221,.12378498E-3,.63E-6,0
ONEWEB-0524,2022-138AF,2026-07-08T23:43:42.866976,13.20772388,.00029435,87.9191,270.0936,97.3289,262.8179,0,U,54142,999,18218,-.17546057E-3,-.58E-6,0
ONEWEB-0525,2022-138AG,2026-07-09T07:11:53.324736,13.19727014,.00020897,87.9187,300.5622,112.1794,247.9560,0,U,54143,999,17974,.11358623E-3,.58E-6,0
ONEWEB-0526,2022-138AH,2026-07-09T18:54:42.660864,13.19723586,.0002094,87.9193,300.4660,104.3102,255.8263,0,U,54144,999,17978,.13724E-3,.68E-6,0
ONEWEB-0529,2022-138AJ,2026-07-09T06:15:03.265344,13.19725826,.00019731,87.9185,300.5784,108.8341,251.3006,0,U,54145,999,17973,.1129132E-3,.58E-6,0
ONEWEB-0531,2022-138AK,2026-07-09T04:51:34.899264,13.20773128,.00027697,87.9175,270.0493,88.4608,271.6843,0,U,54146,999,18221,-.10956231E-4,.9E-7,0
ONEWEB-0535,2022-138AL,2026-07-09T07:02:47.738976,13.19726710,.00020085,87.9193,300.5576,92.3473,267.7890,0,U,54147,999,17975,.13632492E-4,.18E-6,0
ONEWEB-0536,2022-138AM,2026-07-09T04:32:11.334912,13.20772623,.00029025,87.9173,270.0716,87.6128,272.5337,0,U,54148,999,18220,.22656426E-3,.105E-5,0
ONEWEB-0527,2022-166A,2026-07-09T03:05:11.456448,13.21827082,.00020627,87.9234,239.6313,95.8486,264.2883,0,U,54642,999,17443,-.17823672E-3,-.61E-6,0
ONEWEB-0528,2022-166B,2026-07-08T16:12:22.643712,13.21825750,.00020935,87.9235,239.7238,102.1937,257.9432,0,U,54643,999,17438,.40987286E-4,.3E-6,0
ONEWEB-0539,2022-166C,2026-07-09T02:11:51.936576,13.21824537,.0001845,87.9249,239.6138,94.9197,265.2148,0,U,54644,999,17443,-.37425893E-3,-.142E-5,0
ONEWEB-0540,2022-166D,2026-07-09T02:21:45.689472,13.21824067,.00019958,87.9235,239.6412,94.5042,265.6320,0,U,54645,999,17442,.16039449E-3,.79E-6,0
ONEWEB-0542,2022-166E,2026-07-09T02:26:25.985760,13.21825358,.00017655,87.9245,239.6105,93.0756,267.0580,0,U,54646,999,17443,-.11889908E-4,.8E-7,0
ONEWEB-0545,2022-166F,2026-07-09T12:29:35.119968,13.21825940,.0001584,87.9232,239.5373,84.5858,275.5456,0,U,54647,999,17445,.65429E-4,.4E-6,0
ONEWEB-0580,2022-166G,2026-07-09T02:48:11.510496,13.21822912,.0001883,87.9246,239.6164,79.5300,280.6046,0,U,54648,999,17444,-.33842195E-3,-.127E-5,0
ONEWEB-0582,2022-166H,2026-07-08T15:05:46.313664,13.21827264,.00017478,87.9237,239.7068,89.1249,271.0085,0,U,54649,999,17435,.41589784E-3,.185E-5,0
ONEWEB-0583,2022-166J,2026-07-09T02:16:44.733216,13.21825602,.00019849,87.9235,239.6382,95.4533,264.6828,0,U,54650,999,17442,.20479386E-3,.98E-6,0
ONEWEB-0584,2022-166K,2026-07-09T02:45:47.410848,13.21824631,.00020781,87.9234,239.6188,94.6494,265.4878,0,U,54651,999,17441,-.26300602E-4,.2E-7,0
ONEWEB-0585,2022-166L,2026-07-09T03:19:41.430144,13.21827938,.00021749,87.9239,239.6018,100.5438,259.5941,0,U,54652,999,17442,-.58196138E-4,-.11E-6,0
ONEWEB-0586,2022-166M,2026-07-09T12:44:07.161216,13.21825990,.0001888,87.9241,239.5492,95.4452,264.6898,0,U,54653,999,17447,.18664E-3,.9E-6,0
ONEWEB-0587,2022-166N,2026-07-09T02:04:38.267328,13.21825683,.00023867,87.9247,239.6132,101.2006,258.9397,0,U,54654,999,17457,.14388082E-3,.72E-6,0
ONEWEB-0589,2022-166P,2026-07-09T12:39:16.413120,13.21826114,.0001616,87.9238,239.5352,73.3678,286.7634,0,U,54655,999,17449,.1227E-3,.64E-6,0
ONEWEB-0590,2022-166Q,2026-07-09T02:21:22.301856,13.21825479,.00023622,87.9245,239.6125,87.1387,273.0017,0,U,54656,999,17442,.64486219E-4,.4E-6,0
ONEWEB-0591,2022-166R,2026-07-09T02:38:31.189344,13.21827368,.0002055,87.9243,239.6232,94.1110,266.0259,0,U,54657,999,17445,.845128E-4,.48E-6,0
ONEWEB-0592,2022-166S,2026-07-09T02:43:21.317952,13.21824134,.00019395,87.9252,239.6033,99.5697,260.5656,0,U,54658,999,17433,.41002791E-3,.182E-5,0
ONEWEB-0593,2022-166T,2026-07-08T16:20:51.201888,13.21826012,.00018946,87.9243,239.6983,99.6744,260.4604,0,U,54659,999,17438,.19565849E-3,.94E-6,0
ONEWEB-0594,2022-166U,2026-07-08T15:00:54.169344,13.21824054,.00022126,87.9242,239.7255,101.8410,258.2972,0,U,54660,999,17439,-.66077216E-4,-.14E-6,0
ONEWEB-0595,2022-166V,2026-07-09T03:10:01.937568,13.21825356,.00023079,87.9246,239.6068,101.2785,258.8608,0,U,54661,999,17443,-.5456928E-4,-.1E-6,0
ONEWEB-0596,2022-166W,2026-07-09T02:33:39.924576,13.21825156,.0002125,87.9238,239.6226,97.0267,263.1109,0,U,54662,999,17443,-.72456555E-3,-.286E-5,0
