ONEWEB-0522             
1 54140U 22138AD  26190.28098867  .00000028  00000+0  38336-4 0  9992
2 54140  87.9193 300.5594 0001912 106.4902 253.6440 13.19725981179720
ONEWEB-0523             
1 54141U 22138AE  26190.22605711  .00000063  00000+0  12378-3 0  9995
2 54141  87.9194 270.0492 0002488  83.1521 276.9896 13.20772764182211
ONEWEB-0524             
1 54142U 22138AF  26189.98869059 -.00000058  00000+0 -17546-3 0  9992
2 54142  87.9191 270.0936 0002943  97.3289 262.8179 13.20772388182182
ONEWEB-0525             
1 54143U 22138AG  26190.29992274  .00000058  00000+0  11359-3 0  9999
2 54143  87.9187 300.5622 0002089 112.1794 247.9560 13.19727014179747
ONEWEB-0526             
1 54144U 22138AH  26190.78799376  .00000068  00000+0  13724-3 0  9991
2 54144  87.9193 300.4660 0002094 104.3102 255.8263 13.19723586179780
ONEWEB-0529             
1 54145U 22138AJ  26190.26045446  .00000058  00000+0  11291-3 0  9993
2 54145  87.9185 300.5784 0001973 108.8341 251.3006 13.19725826179739
ONEWEB-0531             
1 54146U 22138AK  26190.20248726  .00000009  00000+0 -10956-4 0  9999
2 54146  87.9175 270.0493 0002769  88.4608 271.6843 13.20773128182211
ONEWEB-0535             
1 54147U 22138AL  26190.29360809  .00000018  00000+0  13632-4 0  9999
2 54147  87.9193 300.5576 0002008  92.3473 267.7890 13.19726710179759
ONEWEB-0536             
1 54148U 22138AM  26190.18902008  .00000105  00000+0  22656-3 0  9993
2 54148  87.9173 270.0716 0002902  87.6128 272.5337 13.20772623182202
ONEWEB-0527             
1 54642U 22166A   26190.12860482 -.00000061  00000+0 -17824-3 0  9990
2 54642  87.9234 239.6313 0002062  95.8486 264.2883 13.21827082174439
ONEWEB-0528             
1 54643U 22166B   26189.67526208  .00000030  00000+0  40987-4 0  9995
2 54643  87.9235 239.7238 0002093 102.1937 257.9432 13.21825750174388
ONEWEB-0539             
1 54644U 22166C   26190.09157334 -.00000142  00000+0 -37426-3 0  9993
2 54644  87.9249 239.6138 0001845  94.9197 265.2148 13.21824537174436
ONEWEB-0540             
1 54645U 22166D   26190.09844548  .00000079  00000+0  16039-3 0  9998
2 54645  87.9235 239.6412 0001995  94.5042 265.6320 13.21824067174421
ONEWEB-0542             
1 54646U 22166E   26190.10168965  .00000008  00000+0 -11890-4 0  9997
2 54646  87.9245 239.6105 0001765  93.0756 267.0580 13.21825358174432
ONEWEB-0545             
1 54647U 22166F   26190.52054537  .00000040  00000+0  65429-4 0  9995
2 54647  87.9232 239.5373 0001584  84.5858 275.5456 13.21825940174457
ONEWEB-0580             
1 54648U 22166G   26190.11679989 -.00000127  00000+0 -33842-3 0  9996
2 54648  87.9246 239.6164 0001883  79.5300 280.6046 13.21822912174447
ONEWEB-0582             
1 54649U 22166H   26189.62900826  .00000185  00000+0  41590-3 0  9999
2 54649  87.9237 239.7068 0001747  89.1249 271.0085 13.21827264174352
ONEWEB-0583             
1 54650U 22166J   26190.09496219  .00000098  00000+0  20479-3 0  9996
2 54650  87.9235 239.6382 0001984  95.4533 264.6828 13.21825602174424
ONEWEB-0584             
1 54651U 22166K   26190.11513207  .00000002  00000+0 -26301-4 0  9994
2 54651  87.9234 239.6188 0002078  94.6494 265.4878 13.21824631174414
ONEWEB-0585             
1 54652U 22166L   26190.13867396 -.00000011  00000+0 -58196-4 0  9996
2 54652  87.9239 239.6018 0002174 100.5438 259.5941 13.21827938174423
ONEWEB-0586             
1 54653U 22166M   26190.53063844  .00000090  00000+0  18664-3 0  9997
2 54653  87.9241 239.5492 0001888  95.4452 264.6898 13.21825990174470
ONEWEB-0587             
1 54654U 22166N   26190.08655402  .00000072  00000+0  14388-3 0  9994
2 54654  87.9247 239.6132 0002386 101.2006 258.9397 13.21825683174574
ONEWEB-0589             
1 54655U 22166P   26190.52727330  .00000064  00000+0  12270-3 0  9993
2 54655  87.9238 239.5352 0001616  73.3678 286.7634 13.21826114174491
ONEWEB-0590             
1 54656U 22166Q   26190.09817479  .00000040  00000+0  64486-4 0  9991
2 54656  87.9245 239.6125 0002362  87.1387 273.0017 13.21825479174428
ONEWEB-0591             
1 54657U 22166R   26190.11008321  .00000048  00000+0  84513-4 0  9994
2 54657  87.9243 239.6232 0002055  94.1110 266.0259 13.21827368174459
ONEWEB-0592             
1 54658U 22166S   26190.11344118  .00000182  00000+0  41003-3 0  9997
2 54658  87.9252 239.6033 0001939  99.5697 260.5656 13.21824134174333
ONEWEB-0593             
1 54659U 22166T   26189.68114817  .00000094  00000+0  19566-3 0  9990
2 54659  87.9243 239.6983 0001894  99.6744 260.4604 13.21826012174386
ONEWEB-0594             
1 54660U 22166U   26189.62562696 -.00000014  00000+0 -66077-4 0  9992
2 54660  87.9242 239.7255 0002212 101.8410 258.2972 13.21824054174399
ONEWEB-0595             
1 54661U 22166V   26190.13196687 -.00000010  00000+0 -54569-4 0  9993
2 54661  87.9246 239.6068 0002307 101.2785 258.8608 13.21825356174432
ONEWEB-0596             
1 54662U 22166W   26190.10671209 -.00000286  00000+0 -72457-3 0  9999
2 54662  87.9238 239.6226 0002125  97.0267 263.1109 13.21825156174438
